IRIDIUM 171             
1 43929U 19002H   25284.22725518 -.00000146  00000+0 -59157-4 0  9995
2 43929  86.3925  97.9413 0001796  81.7210 278.4190 14.34217241353277
IRIDIUM 170             
1 43930U 19002J   25284.19945829  .00000310  00000+0  45302-4 0  9990
2 43930  86.6039  97.6810 0002237  87.5500 272.5973 14.72251596362629
IRIDIUM 167             
1 43931U 19002K   25284.22091277  .00000025  00000+0  20103-5 0  9990
2 43931  86.3913  97.6852 0002064  77.8423 282.3004 14.34217710353271
IRIDIUM 181             
1 56726U 23068S   25284.21404312  .00000434  00000+0  12286-3 0  9995
2 56726  86.4554 160.8327 0001602  83.4880 276.6503 14.43301382126521
IRIDIUM 177             
1 56727U 23068T   25283.73745384  .00000661  00000+0  83470-4 0  9995
2 56727  86.1919  87.2557 0002153  88.2936 271.8531 14.80232005129468
IRIDIUM 174             
1 56728U 23068U   25284.18713377  .00000511  00000+0  77167-4 0  9993
2 56728  86.6045  97.8087 0002771  94.9471 265.2063 14.72246133129389
IRIDIUM 178             
1 56729U 23068V   25283.45614979  .00001287  00000+0  16594-3 0  9998
2 56729  86.6530 129.7476 0002327  75.2064 284.9415 14.80238937129429
IRIDIUM 179             
1 56730U 23068W   25284.12677492  .00001422  00000+0  18375-3 0  9994
2 56730  86.6787 137.6959 0002292  64.7626 295.3833 14.80223492129528
